{
  "norad_id": 45159,
  "name": "ONEWEB-0056",
  "history": [
    {
      "epoch": "2026-03-28T21:19:06.170304Z",
      "apogee_km": 1223.081848005767,
      "perigee_km": 1220.3501568425754,
      "latitude_deg": -2.8707107818914653e-05,
      "longitude_deg": -93.83606136137298,
      "height_km": 1224.2769776831585,
      "semi_major_axis_km": 7599.853002424171,
      "eccentricity": 0.00017972,
      "inclination_deg": 87.8808,
      "raan_deg": 52.2419,
      "arg_perigee_deg": 76.2922,
      "mean_anomaly_deg": 283.8405,
      "mean_motion_rev_day": 13.10373114
    },
    {
      "epoch": "2026-03-29T04:38:55.322304Z",
      "apogee_km": 1223.0766449624307,
      "perigee_km": 1220.3543777928562,
      "latitude_deg": 2.346667530940175e-05,
      "longitude_deg": 155.8471950691315,
      "height_km": 1224.282253188301,
      "semi_major_axis_km": 7599.852511377643,
      "eccentricity": 0.0001791,
      "inclination_deg": 87.8809,
      "raan_deg": 52.181,
      "arg_perigee_deg": 76.4935,
      "mean_anomaly_deg": 283.6392,
      "mean_motion_rev_day": 13.10373241
    },
    {
      "epoch": "2026-03-30T04:28:19.966080Z",
      "apogee_km": 1223.0750210616097,
      "perigee_km": 1220.3466756840444,
      "latitude_deg": -3.3252938085645634e-05,
      "longitude_deg": 157.31821432761615,
      "height_km": 1224.2801339261973,
      "semi_major_axis_km": 7599.847848372827,
      "eccentricity": 0.0001795,
      "inclination_deg": 87.8812,
      "raan_deg": 51.9831,
      "arg_perigee_deg": 76.6338,
      "mean_anomaly_deg": 283.4989,
      "mean_motion_rev_day": 13.10374447
    },
    {
      "epoch": "2026-03-30T09:58:11.744544Z",
      "apogee_km": 1223.0815063096725,
      "perigee_km": 1220.3356820964882,
      "latitude_deg": -6.462083198649034e-05,
      "longitude_deg": 74.58108665468916,
      "height_km": 1224.2766801235994,
      "semi_major_axis_km": 7599.8455942030805,
      "eccentricity": 0.00018065,
      "inclination_deg": 87.8813,
      "raan_deg": 51.9375,
      "arg_perigee_deg": 76.6696,
      "mean_anomaly_deg": 283.4632,
      "mean_motion_rev_day": 13.1037503
    },
    {
      "epoch": "2026-03-30T20:57:55.376640Z",
      "apogee_km": 1223.0775903632557,
      "perigee_km": 1220.3358707390225,
      "latitude_deg": -3.9804143158078145e-05,
      "longitude_deg": -90.89357952597686,
      "height_km": 1224.2767871092585,
      "semi_major_axis_km": 7599.843730551139,
      "eccentricity": 0.00018038,
      "inclination_deg": 87.8815,
      "raan_deg": 51.8462,
      "arg_perigee_deg": 76.7338,
      "mean_anomaly_deg": 283.399,
      "mean_motion_rev_day": 13.10375512
    },
    {
      "epoch": "2026-03-31T15:17:28.051872Z",
      "apogee_km": 1223.083681323007,
      "perigee_km": 1220.3249389274324,
      "latitude_deg": -5.252289516383867e-05,
      "longitude_deg": -6.684537280278842,
      "height_km": 1224.2689966353919,
      "semi_major_axis_km": 7599.841310125219,
      "eccentricity": 0.0001815,
      "inclination_deg": 87.8818,
      "raan_deg": 51.694,
      "arg_perigee_deg": 76.5885,
      "mean_anomaly_deg": 283.5444,
      "mean_motion_rev_day": 13.10376138
    }
  ]
}